0 LES 2 DEB
1 02529U 65034D   13279.19682522  .00000012  00000-0  00000+0 0  1111
2 02529 032.0977 167.7975 3968597 306.0863 147.2964 04.64827076805104
0 LES 2 DEB
1 02529U 65034D   13285.30539575 -.00000001  00000-0  00000+0 0  1120
2 02529 032.0994 164.2823 3967708 311.4421 289.2505 04.64827192805387
0 LES 2 DEB
1 02529U 65034D   13292.67276534 -.00000001  00000-0  00000+0 0  1132
2 02529 032.1098 160.0466 3966758 317.9015 017.6452 04.64827389805724
